CCSDS_OMM_VERS = 2.0
CREATION_DATE  = 
ORIGINATOR     = 

OBJECT_NAME    = TWILIGHT H
OBJECT_ID      = 2026-004H
CENTER_NAME    = EARTH
REF_FRAME      = TEME
TIME_SYSTEM    = UTC
MEAN_ELEMENT_THEORY = SGP/SGP4

EPOCH          = 2026-01-26T11:34:24.913920
MEAN_MOTION    = 14.87316335
ECCENTRICITY   = .0005506
INCLINATION    = 97.7954
RA_OF_ASC_NODE = 27.3872
ARG_OF_PERICENTER = 247.5630
MEAN_ANOMALY   = 112.5003

EPHEMERIS_TYPE = 0
CLASSIFICATION_TYPE = U
NORAD_CAT_ID   = 67370
ELEMENT_SET_NO = 999
REV_AT_EPOCH   = 222
BSTAR          = .10225E-2
MEAN_MOTION_DOT = .9184E-4
MEAN_MOTION_DDOT = 0

CCSDS_OMM_VERS = 2.0
CREATION_DATE  = 
ORIGINATOR     = 

OBJECT_NAME    = TWILIGHT J
OBJECT_ID      = 2026-004J
CENTER_NAME    = EARTH
REF_FRAME      = TEME
TIME_SYSTEM    = UTC
MEAN_ELEMENT_THEORY = SGP/SGP4

EPOCH          = 2026-01-26T11:29:40.383168
MEAN_MOTION    = 14.87693567
ECCENTRICITY   = .0004651
INCLINATION    = 97.7995
RA_OF_ASC_NODE = 27.3937
ARG_OF_PERICENTER = 229.1721
MEAN_ANOMALY   = 130.9092

EPHEMERIS_TYPE = 0
CLASSIFICATION_TYPE = U
NORAD_CAT_ID   = 67371
ELEMENT_SET_NO = 999
REV_AT_EPOCH   = 222
BSTAR          = .11355E-2
MEAN_MOTION_DOT = .10301E-3
MEAN_MOTION_DDOT = 0

CCSDS_OMM_VERS = 2.0
CREATION_DATE  = 
ORIGINATOR     = 

OBJECT_NAME    = TWILIGHT K
OBJECT_ID      = 2026-004K
CENTER_NAME    = EARTH
REF_FRAME      = TEME
TIME_SYSTEM    = UTC
MEAN_ELEMENT_THEORY = SGP/SGP4

EPOCH          = 2026-01-26T11:25:02.431776
MEAN_MOTION    = 14.87939891
ECCENTRICITY   = .0003043
INCLINATION    = 97.7971
RA_OF_ASC_NODE = 27.3958
ARG_OF_PERICENTER = 222.2061
MEAN_ANOMALY   = 137.8921

EPHEMERIS_TYPE = 0
CLASSIFICATION_TYPE = U
NORAD_CAT_ID   = 67372
ELEMENT_SET_NO = 999
REV_AT_EPOCH   = 222
BSTAR          = .45317E-3
MEAN_MOTION_DOT = .41E-4
MEAN_MOTION_DDOT = 0

CCSDS_OMM_VERS = 2.0
CREATION_DATE  = 
ORIGINATOR     = 

OBJECT_NAME    = TWILIGHT L
OBJECT_ID      = 2026-004L
CENTER_NAME    = EARTH
REF_FRAME      = TEME
TIME_SYSTEM    = UTC
MEAN_ELEMENT_THEORY = SGP/SGP4

EPOCH          = 2026-01-26T11:30:40.900320
MEAN_MOTION    = 14.87545876
ECCENTRICITY   = .0004633
INCLINATION    = 97.7986
RA_OF_ASC_NODE = 27.3921
ARG_OF_PERICENTER = 235.1070
MEAN_ANOMALY   = 124.9712

EPHEMERIS_TYPE = 0
CLASSIFICATION_TYPE = U
NORAD_CAT_ID   = 67373
ELEMENT_SET_NO = 999
REV_AT_EPOCH   = 222
BSTAR          = .46343E-3
MEAN_MOTION_DOT = .4153E-4
MEAN_MOTION_DDOT = 0

CCSDS_OMM_VERS = 2.0
CREATION_DATE  = 
ORIGINATOR     = 

OBJECT_NAME    = TWILIGHT M
OBJECT_ID      = 2026-004M
CENTER_NAME    = EARTH
REF_FRAME      = TEME
TIME_SYSTEM    = UTC
MEAN_ELEMENT_THEORY = SGP/SGP4

EPOCH          = 2026-01-26T11:26:04.883424
MEAN_MOTION    = 14.87890362
ECCENTRICITY   = .0003309
INCLINATION    = 97.7971
RA_OF_ASC_NODE = 27.3936
ARG_OF_PERICENTER = 223.2349
MEAN_ANOMALY   = 136.8608

EPHEMERIS_TYPE = 0
CLASSIFICATION_TYPE = U
NORAD_CAT_ID   = 67374
ELEMENT_SET_NO = 999
REV_AT_EPOCH   = 222
BSTAR          = .48645E-3
MEAN_MOTION_DOT = .44E-4
MEAN_MOTION_DDOT = 0

CCSDS_OMM_VERS = 2.0
CREATION_DATE  = 
ORIGINATOR     = 

OBJECT_NAME    = TWILIGHT N
OBJECT_ID      = 2026-004N
CENTER_NAME    = EARTH
REF_FRAME      = TEME
TIME_SYSTEM    = UTC
MEAN_ELEMENT_THEORY = SGP/SGP4

EPOCH          = 2026-01-26T11:25:41.793024
MEAN_MOTION    = 14.87916657
ECCENTRICITY   = .000389
INCLINATION    = 97.8007
RA_OF_ASC_NODE = 27.3991
ARG_OF_PERICENTER = 217.2081
MEAN_ANOMALY   = 142.8866

EPHEMERIS_TYPE = 0
CLASSIFICATION_TYPE = U
NORAD_CAT_ID   = 67375
ELEMENT_SET_NO = 999
REV_AT_EPOCH   = 222
BSTAR          = .52538E-3
MEAN_MOTION_DOT = .476E-4
MEAN_MOTION_DDOT = 0

CCSDS_OMM_VERS = 2.0
CREATION_DATE  = 
ORIGINATOR     = 

OBJECT_NAME    = TWILIGHT P
OBJECT_ID      = 2026-004P
CENTER_NAME    = EARTH
REF_FRAME      = TEME
TIME_SYSTEM    = UTC
MEAN_ELEMENT_THEORY = SGP/SGP4

EPOCH          = 2026-01-26T11:27:46.957248
MEAN_MOTION    = 14.87769177
ECCENTRICITY   = .0004241
INCLINATION    = 97.8004
RA_OF_ASC_NODE = 27.3964
ARG_OF_PERICENTER = 224.0772
MEAN_ANOMALY   = 136.0107

EPHEMERIS_TYPE = 0
CLASSIFICATION_TYPE = U
NORAD_CAT_ID   = 67376
ELEMENT_SET_NO = 999
REV_AT_EPOCH   = 222
BSTAR          = .54474E-3
MEAN_MOTION_DOT = .4919E-4
MEAN_MOTION_DDOT = 0

CCSDS_OMM_VERS = 2.0
CREATION_DATE  = 
ORIGINATOR     = 

OBJECT_NAME    = TWILIGHT Q
OBJECT_ID      = 2026-004Q
CENTER_NAME    = EARTH
REF_FRAME      = TEME
TIME_SYSTEM    = UTC
MEAN_ELEMENT_THEORY = SGP/SGP4

EPOCH          = 2026-01-26T11:25:30.082368
MEAN_MOTION    = 14.87927264
ECCENTRICITY   = .0003091
INCLINATION    = 97.8007
RA_OF_ASC_NODE = 27.3991
ARG_OF_PERICENTER = 212.5914
MEAN_ANOMALY   = 147.5112

EPHEMERIS_TYPE = 0
CLASSIFICATION_TYPE = U
NORAD_CAT_ID   = 67377
ELEMENT_SET_NO = 999
REV_AT_EPOCH   = 221
BSTAR          = .36182E-3
MEAN_MOTION_DOT = .3261E-4
MEAN_MOTION_DDOT = 0

CCSDS_OMM_VERS = 2.0
CREATION_DATE  = 
ORIGINATOR     = 

OBJECT_NAME    = TWILIGHT R
OBJECT_ID      = 2026-004R
CENTER_NAME    = EARTH
REF_FRAME      = TEME
TIME_SYSTEM    = UTC
MEAN_ELEMENT_THEORY = SGP/SGP4

EPOCH          = 2026-01-26T11:28:51.479904
MEAN_MOTION    = 14.87691735
ECCENTRICITY   = .000366
INCLINATION    = 97.7978
RA_OF_ASC_NODE = 27.3921
ARG_OF_PERICENTER = 234.9482
MEAN_ANOMALY   = 125.1391

EPHEMERIS_TYPE = 0
CLASSIFICATION_TYPE = U
NORAD_CAT_ID   = 67378
ELEMENT_SET_NO = 999
REV_AT_EPOCH   = 221
BSTAR          = .53252E-3
MEAN_MOTION_DOT = .4798E-4
MEAN_MOTION_DDOT = 0

CCSDS_OMM_VERS = 2.0
CREATION_DATE  = 
ORIGINATOR     = 

OBJECT_NAME    = TWILIGHT S
OBJECT_ID      = 2026-004S
CENTER_NAME    = EARTH
REF_FRAME      = TEME
TIME_SYSTEM    = UTC
MEAN_ELEMENT_THEORY = SGP/SGP4

EPOCH          = 2026-01-26T11:28:40.965024
MEAN_MOTION    = 14.87702818
ECCENTRICITY   = .0004174
INCLINATION    = 97.7982
RA_OF_ASC_NODE = 27.3937
ARG_OF_PERICENTER = 230.5218
MEAN_ANOMALY   = 129.5629

EPHEMERIS_TYPE = 0
CLASSIFICATION_TYPE = U
NORAD_CAT_ID   = 67379
ELEMENT_SET_NO = 999
REV_AT_EPOCH   = 221
BSTAR          = .54142E-3
MEAN_MOTION_DOT = .4881E-4
MEAN_MOTION_DDOT = 0

CCSDS_OMM_VERS = 2.0
CREATION_DATE  = 
ORIGINATOR     = 

OBJECT_NAME    = TWILIGHT T
OBJECT_ID      = 2026-004T
CENTER_NAME    = EARTH
REF_FRAME      = TEME
TIME_SYSTEM    = UTC
MEAN_ELEMENT_THEORY = SGP/SGP4

EPOCH          = 2026-01-26T11:27:25.524864
MEAN_MOTION    = 14.87800575
ECCENTRICITY   = .0003678
INCLINATION    = 97.7975
RA_OF_ASC_NODE = 27.3938
ARG_OF_PERICENTER = 229.5369
MEAN_ANOMALY   = 130.5527

EPHEMERIS_TYPE = 0
CLASSIFICATION_TYPE = U
NORAD_CAT_ID   = 67380
ELEMENT_SET_NO = 999
REV_AT_EPOCH   = 221
BSTAR          = .56315E-3
MEAN_MOTION_DOT = .5091E-4
MEAN_MOTION_DDOT = 0

CCSDS_OMM_VERS = 2.0
CREATION_DATE  = 
ORIGINATOR     = 

OBJECT_NAME    = TWILIGHT U
OBJECT_ID      = 2026-004U
CENTER_NAME    = EARTH
REF_FRAME      = TEME
TIME_SYSTEM    = UTC
MEAN_ELEMENT_THEORY = SGP/SGP4

EPOCH          = 2026-01-25T07:59:19.593888
MEAN_MOTION    = 14.87665561
ECCENTRICITY   = .00015957
INCLINATION    = 97.8011
RA_OF_ASC_NODE = 26.2763
ARG_OF_PERICENTER = 197.3365
MEAN_ANOMALY   = 162.7797

EPHEMERIS_TYPE = 0
CLASSIFICATION_TYPE = U
NORAD_CAT_ID   = 67381
ELEMENT_SET_NO = 999
REV_AT_EPOCH   = 204
BSTAR          = -.11966576E-1
MEAN_MOTION_DOT = -.107252E-2
MEAN_MOTION_DDOT = 0

