TWILIGHT H              
1 67370U 26004H   26026.48223280  .00009184  00000+0  10225-2 0  9993
2 67370  97.7954  27.3872 0005506 247.5630 112.5003 14.87316335  2227
TWILIGHT J              
1 67371U 26004J   26026.47893962  .00010301  00000+0  11355-2 0  9991
2 67371  97.7995  27.3937 0004651 229.1721 130.9092 14.87693567  2229
TWILIGHT K              
1 67372U 26004K   26026.47572259  .00004100  00000+0  45317-3 0  9991
2 67372  97.7971  27.3958 0003043 222.2061 137.8921 14.87939891  2222
TWILIGHT L              
1 67373U 26004L   26026.47964005  .00004153  00000+0  46343-3 0  9994
2 67373  97.7986  27.3921 0004633 235.1070 124.9712 14.87545876  2229
TWILIGHT M              
1 67374U 26004M   26026.47644541  .00004400  00000+0  48645-3 0  9997
2 67374  97.7971  27.3936 0003309 223.2349 136.8608 14.87890362  2225
TWILIGHT N              
1 67375U 26004N   26026.47617816  .00004760  00000+0  52538-3 0  9998
2 67375  97.8007  27.3991 0003890 217.2081 142.8866 14.87916657  2228
TWILIGHT P              
1 67376U 26004P   26026.47762682  .00004919  00000+0  54474-3 0  9998
2 67376  97.8004  27.3964 0004241 224.0772 136.0107 14.87769177  2226
TWILIGHT Q              
1 67377U 26004Q   26026.47604262  .00003261  00000+0  36182-3 0  9993
2 67377  97.8007  27.3991 0003091 212.5914 147.5112 14.87927264  2217
TWILIGHT R              
1 67378U 26004R   26026.47837361  .00004798  00000+0  53252-3 0  9995
2 67378  97.7978  27.3921 0003660 234.9482 125.1391 14.87691735  2219
TWILIGHT S              
1 67379U 26004S   26026.47825191  .00004881  00000+0  54142-3 0  9996
2 67379  97.7982  27.3937 0004174 230.5218 129.5629 14.87702818  2219
TWILIGHT T              
1 67380U 26004T   26026.47737876  .00005091  00000+0  56315-3 0  9998
2 67380  97.7975  27.3938 0003678 229.5369 130.5527 14.87800575  2215
TWILIGHT U              
1 67381U 26004U   26025.33286567 -.00107252  00000+0 -11967-1 0  9995
2 67381  97.8011  26.2763 0001595 197.3365 162.7797 14.87665561  2047
